NORAD_CAT_ID,OBJECT_NAME,OBJECT_TYPE,EPOCH,MEAN_MOTION,ECCENTRICITY,INCLINATION,RA_OF_ASC_NODE,ARG_OF_PERICENTER,MEAN_ANOMALY,BSTAR,MEAN_MOTION_DOT,MEAN_MOTION_DDOT,TLE_LINE0,TLE_LINE1,TLE_LINE2,SEMIMAJOR_AXIS,PERIOD,APOGEE,PERIGEE,DECAYED
55955.0,STARLINK-5878,PAYLOAD,2023-05-29 22:21:50,15.69927634,0.000306,69.9991,335.354,269.233,90.8515,1.4221e-05,1.498e-05,0.0,0 STARLINK-5878,1 55955U 23037AT  23149.93183842  .00001498  00000-0  14221-4 0  9997,2 55955  69.9991 335.3540 0003060 269.2330  90.8515 15.69927634 12015,6737.241,91.724,361.168,357.044,0.0
55955.0,STARLINK-5878,PAYLOAD,2023-05-30 12:07:36,15.69930424,0.00032,69.9989,333.7419,269.2622,90.8207,1.5619e-05,1.666e-05,0.0,0 STARLINK-5878,1 55955U 23037AT  23150.50528711  .00001666  00000-0  15619-4 0  9999,2 55955  69.9989 333.7419 0003200 269.2622  90.8207 15.69930424 11769,6737.233,91.724,361.254,356.942,0.0
55955.0,STARLINK-5878,PAYLOAD,2023-05-30 21:18:07,15.69937723,0.0003221,69.9997,332.6671,270.7269,89.3557,5.7705e-05,6.735e-05,0.0,0 STARLINK-5878,1 55955U 23037AT  23150.88758573  .00006735  00000-0  57705-4 0  9995,2 55955  69.9997 332.6671 0003221 270.7269  89.3557 15.69937723 11820,6737.212,91.723,361.247,356.907,0.0
55955.0,STARLINK-5878,PAYLOAD,2023-05-31 11:03:53,15.69924387,0.000305,70.0002,331.0546,271.7656,88.3191,5.1936e-06,4.12e-06,0.0,0 STARLINK-5878,1 55955U 23037AT  23151.46103917  .00000412  00000-0  51936-5 0  9993,2 55955  70.0002 331.0546 0003050 271.7656  88.3191 15.69924387 12258,6737.25,91.724,361.17,357.06,0.0
55955.0,STARLINK-5878,PAYLOAD,2023-05-31 14:07:24,15.69920656,0.0003032,70.0,330.6958,271.4607,88.6242,-4.7735e-06,-7.86e-06,0.0,0 STARLINK-5878,1 55955U 23037AT  23151.58847438 -.00000786  00000-0 -47735-5 0  9997,2 55955  70.0000 330.6958 0003032 271.4607  88.6242 15.69920656 11930,6737.261,91.724,361.169,357.083,0.0
55955.0,STARLINK-5878,PAYLOAD,2023-05-31 21:46:10,15.69908983,0.0003059,69.9993,329.8006,267.0967,92.9879,-3.748e-05,-4.714e-05,0.0,0 STARLINK-5878,1 55955U 23037AT  23151.90706131 -.00004714  00000-0 -37480-4 0  9997,2 55955  69.9993 329.8006 0003059 267.0967  92.9879 15.69908983 11989,6737.294,91.725,361.22,357.098,0.0
55955.0,STARLINK-5878,PAYLOAD,2023-06-01 05:24:55,15.69919383,0.0003444,69.9982,328.9042,266.9874,93.0928,-4.2745e-06,-7.27e-06,0.0,0 STARLINK-5878,1 55955U 23037AT  23152.22564184 -.00000727  00000-0 -42745-5 0  9994,2 55955  69.9982 328.9042 0003444 266.9874  93.0928 15.69919383 12030,6737.265,91.724,361.45,356.809,0.0
55955.0,STARLINK-5878,PAYLOAD,2023-06-02 13:31:43,15.69922428,0.0003301,69.9978,325.1387,267.9452,92.1365,1.6878e-05,1.817e-05,0.0,0 STARLINK-5878,1 55955U 23037AT  23153.56369426  .00001817  00000-0  16878-4 0  9990,2 55955  69.9978 325.1387 0003301 267.9452  92.1365 15.69922428 12243,6737.256,91.724,361.345,356.897,0.0
55955.0,STARLINK-5878,PAYLOAD,2023-06-02 18:06:58,15.69931917,0.0002984,70.0006,324.6081,249.5894,110.4982,4.2331e-05,4.882e-05,0.0,0 STARLINK-5878,1 55955U 23037AT  23153.75484021  .00004882  00000-0  42331-4 0  9998,2 55955  70.0006 324.6081 0002984 249.5894 110.4982 15.69931917 12618,6737.229,91.724,361.104,357.083,0.0
55955.0,STARLINK-5878,PAYLOAD,2023-06-02 21:10:28,15.69933131,0.0003685,69.9979,324.2461,267.8408,92.2365,4.0278e-05,4.635e-05,0.0,0 STARLINK-5878,1 55955U 23037AT  23153.88227303  .00004635  00000-0  40278-4 0  9994,2 55955  69.9979 324.2461 0003685 267.8408  92.2365 15.69933131 12291,6737.225,91.724,361.573,356.608,0.0
55955.0,STARLINK-5878,PAYLOAD,2023-06-03 10:56:14,15.6992586,0.0003316,69.9992,322.6336,270.926,89.1556,6.3481e-06,5.51e-06,0.0,0 STARLINK-5878,1 55955U 23037AT  23154.45572796  .00000551  00000-0  63481-5 0  9992,2 55955  69.9992 322.6336 0003316 270.9260  89.1556 15.69925860 12726,6737.246,91.724,361.345,356.877,0.0
55955.0,STARLINK-5878,PAYLOAD,2023-06-03 13:59:45,15.69927357,0.0003295,69.9991,322.2753,270.8076,89.2742,8.0935e-06,7.61e-06,0.0,0 STARLINK-5878,1 55955U 23037AT  23154.58316003  .00000761  00000-0  80935-5 0  9999,2 55955  69.9991 322.2753 0003295 270.8076  89.2742 15.69927357 12400,6737.242,91.724,361.327,356.887,0.0
55955.0,STARLINK-5878,PAYLOAD,2023-06-03 20:06:45,15.6993164,0.0003009,69.9998,321.5587,266.4894,93.5957,3.0897e-05,3.505e-05,0.0,0 STARLINK-5878,1 55955U 23037AT  23154.83802496  .00003505  00000-0  30897-4 0  9993,2 55955  69.9998 321.5587 0003009 266.4894  93.5957 15.69931640 12446,6737.23,91.724,361.122,357.067,0.0
55955.0,STARLINK-5878,PAYLOAD,2023-06-04 14:27:47,15.69919415,0.000341,69.9994,319.4102,271.9832,88.0973,-5.9803e-06,-9.32e-06,0.0,0 STARLINK-5878,1 55955U 23037AT  23155.60263111 -.00000932  00000-0 -59803-5 0  9996,2 55955  69.9994 319.4102 0003410 271.9832  88.0973 15.69919415 12566,6737.265,91.724,361.427,356.832,0.0
55955.0,STARLINK-5878,PAYLOAD,2023-06-04 19:03:02,15.6992914,0.000323,69.9975,318.8733,269.1912,90.8914,-1.3332e-05,-1.816e-05,0.0,0 STARLINK-5878,1 55955U 23037AT  23155.79378103 -.00001816  00000-0 -13332-4 0  9992,2 55955  69.9975 318.8733 0003230 269.1912  90.8914 15.69929140 12939,6737.237,91.724,361.278,356.926,0.0
55955.0,STARLINK-5878,PAYLOAD,2023-06-04 20:34:47,15.69924599,0.000319,69.9979,318.6943,266.7439,93.3392,4.8525e-06,3.71e-06,0.0,0 STARLINK-5878,1 55955U 23037AT  23155.85749731  .00000371  00000-0  48525-5 0  9994,2 55955  69.9979 318.6943 0003190 266.7439  93.3392 15.69924599 12601,6737.25,91.724,361.264,356.966,0.0
55955.0,STARLINK-5878,PAYLOAD,2023-06-05 04:13:33,15.69917318,0.000335,69.9982,317.7969,267.9023,92.1789,1.1804e-05,1.206e-05,0.0,0 STARLINK-5878,1 55955U 23037AT  23156.17608445  .00001206  00000-0  11804-4 0  9993,2 55955  69.9982 317.7969 0003350 267.9023  92.1789 15.69917318 12993,6737.271,91.725,361.393,356.879,0.0
55955.0,STARLINK-5878,PAYLOAD,2023-06-05 13:24:03,15.69924975,0.0003614,69.9977,316.7223,267.3184,92.7598,1.9203e-05,2.097e-05,0.0,0 STARLINK-5878,1 55955U 23037AT  23156.55837891  .00002097  00000-0  19203-4 0  9994,2 55955  69.9977 316.7223 0003614 267.3184  92.7598 15.69924975 12715,6737.249,91.724,361.548,356.679,0.0
55955.0,STARLINK-5878,PAYLOAD,2023-06-05 21:02:49,15.69929905,0.0003458,69.9978,315.8266,270.6827,89.3972,7.8453e-06,7.31e-06,0.0,0 STARLINK-5878,1 55955U 23037AT  23156.87696110  .00000731  00000-0  78453-5 0  9992,2 55955  69.9978 315.8266 0003458 270.6827  89.3972 15.69929905 12761,6737.235,91.724,361.429,356.77,0.0
55955.0,STARLINK-5878,PAYLOAD,2023-06-06 13:52:06,15.69918861,0.0003458,69.9997,313.8558,264.9121,95.168,1.0863e-05,1.093e-05,0.0,0 STARLINK-5878,1 55955U 23037AT  23157.57785041  .00001093  00000-0  10863-4 0  9994,2 55955  69.9997 313.8558 0003458 264.9121  95.1680 15.69918861 13218,6737.266,91.724,361.461,356.801,0.0
55955.0,STARLINK-5878,PAYLOAD,2023-06-06 19:59:06,15.69926877,0.0003583,69.9996,313.1391,266.8993,93.1793,2.5989e-05,2.914e-05,0.0,0 STARLINK-5878,1 55955U 23037AT  23157.83271348  .00002914  00000-0  25989-4 0  9991,2 55955  69.9996 313.1391 0003583 266.8993  93.1793 15.69926877 12917,6737.243,91.724,361.522,356.694,0.0
55955.0,STARLINK-5878,PAYLOAD,2023-06-07 03:37:52,15.69920571,0.0003553,69.9991,312.2431,267.4486,92.6303,-1.2525e-05,-1.718e-05,0.0,0 STARLINK-5878,1 55955U 23037AT  23158.15130023 -.00001718  00000-0 -12525-4 0  9996,2 55955  69.9991 312.2431 0003553 267.4486  92.6303 15.69920571 12969,6737.261,91.724,361.52,356.732,0.0
55955.0,STARLINK-5878,PAYLOAD,2023-06-07 20:27:08,15.69928873,0.0004074,69.9976,310.2711,267.2045,92.8685,9.5076e-06,9.3e-06,0.0,0 STARLINK-5878,1 55955U 23037AT  23158.85217743  .00000930  00000-0  95076-5 0  9994,2 55955  69.9976 310.2711 0004074 267.2045  92.8685 15.69928873 13070,6737.237,91.724,361.847,356.358,0.0
55955.0,STARLINK-5878,PAYLOAD,2023-06-07 21:58:53,15.69929025,0.0003918,69.9982,310.0932,264.3249,95.75,9.7982e-06,9.66e-06,0.0,0 STARLINK-5878,1 55955U 23037AT  23158.91589392  .00000966  00000-0  97982-5 0  9990,2 55955  69.9982 310.0932 0003918 264.3249  95.7500 15.69929025 13427,6737.237,91.724,361.742,356.462,0.0
55955.0,STARLINK-5878,PAYLOAD,2023-06-08 11:44:40,15.69922187,0.0003885,69.9969,308.481,264.2929,95.7824,-1.8406e-06,-4.34e-06,0.0,0 STARLINK-5878,1 55955U 23037AT  23159.48935242 -.00000434  00000-0 -18406-5 0  9998,2 55955  69.9969 308.4810 0003885 264.2929  95.7824 15.69922187 13178,6737.257,91.724,361.739,356.504,0.0
55955.0,STARLINK-5878,PAYLOAD,2023-06-08 13:16:25,15.69922766,0.0003789,69.9966,308.3009,264.8126,95.2638,-6.9939e-07,-2.97e-06,0.0,0 STARLINK-5878,1 55955U 23037AT  23159.55306822 -.00000297  00000-0 -69939-6 0  9997,2 55955  69.9966 308.3009 0003789 264.8126  95.2638 15.69922766 13522,6737.255,91.724,361.673,356.567,0.0
55955.0,STARLINK-5878,PAYLOAD,2023-06-08 19:23:24,15.69932668,0.0003886,69.9965,307.584,267.9755,92.0996,9.0234e-06,8.72e-06,0.0,0 STARLINK-5878,1 55955U 23037AT  23159.80792691  .00000872  00000-0  90234-5 0  9996,2 55955  69.9965 307.5840 0003886 267.9755  92.0996 15.69932668 13563,6737.227,91.724,361.71,356.474,0.0
55955.0,STARLINK-5878,PAYLOAD,2023-06-09 10:40:57,15.69914474,0.0003415,69.9963,305.7922,267.4799,92.6006,8.5198e-06,8.11e-06,0.0,0 STARLINK-5878,1 55955U 23037AT  23160.44510761  .00000811  00000-0  85198-5 0  9990,2 55955  69.9963 305.7922 0003415 267.4799  92.6006 15.69914474 13320,6737.279,91.725,361.444,356.843,0.0
55955.0,STARLINK-5878,PAYLOAD,2023-06-09 12:12:41,15.69923497,0.0003771,69.9973,305.6134,267.5354,92.541,1.5566e-06,-2.6e-07,0.0,0 STARLINK-5878,1 55955U 23037AT  23160.50881798 -.00000026  00000-0  15566-5 0  9999,2 55955  69.9973 305.6134 0003771 267.5354  92.5410 15.69923497 13679,6737.253,91.724,361.658,356.577,0.0
55955.0,STARLINK-5878,PAYLOAD,2023-06-10 09:37:13,15.69920674,0.0003345,69.997,303.104,274.6989,85.3825,1.0086e-05,1e-05,0.0,0 STARLINK-5878,1 55955U 23037AT  23161.40085412  .00001000  00000-0  10086-4 0  9991,2 55955  69.9970 303.1040 0003345 274.6989  85.3825 15.69920674 13477,6737.261,91.724,361.38,356.872,0.0
